NORAD_CAT_ID,OBJECT_NAME,OBJECT_TYPE,EPOCH,MEAN_MOTION,ECCENTRICITY,INCLINATION,RA_OF_ASC_NODE,ARG_OF_PERICENTER,MEAN_ANOMALY,BSTAR,MEAN_MOTION_DOT,MEAN_MOTION_DDOT,TLE_LINE0,TLE_LINE1,TLE_LINE2,SEMIMAJOR_AXIS,PERIOD,APOGEE,PERIGEE,DECAYED
49153.0,STARLINK-3072,PAYLOAD,2022-08-17 11:55:05,14.96716876,0.0003038,69.9989,292.3972,262.8172,97.2641,0.00013931,1.503e-05,0.0,0 STARLINK-3072,1 49153U 21082Z   22229.49659265  .00001503  00000-0  13931-3 0  9997,2 49153  69.9989 292.3972 0003038 262.8172  97.2641 14.96716876 53428,6955.186,96.211,579.164,574.938,0.0
49153.0,STARLINK-3072,PAYLOAD,2022-08-18 07:09:56,14.96721875,0.0003049,69.9989,290.3804,261.1057,98.9756,0.00011794,1.259e-05,0.0,0 STARLINK-3072,1 49153U 21082Z   22230.29857173  .00001259  00000-0  11794-3 0  9998,2 49153  69.9989 290.3804 0003049 261.1057  98.9756 14.96721875 52324,6955.17,96.21,579.156,574.915,0.0
49153.0,STARLINK-3072,PAYLOAD,2022-08-18 11:58:40,14.96713751,0.0003225,69.9985,289.8756,261.2309,98.8484,-1.1316e-05,-2.21e-06,0.0,0 STARLINK-3072,1 49153U 21082Z   22230.49907546 -.00000221  00000-0 -11316-4 0  9991,2 49153  69.9985 289.8756 0003225 261.2309  98.8484 14.96713751 52350,6955.196,96.211,579.304,574.817,0.0
49153.0,STARLINK-3072,PAYLOAD,2022-08-19 05:37:16,14.96720901,0.0003237,69.9984,288.0264,261.5274,98.5517,4.8255e-06,-3.6e-07,0.0,0 STARLINK-3072,1 49153U 21082Z   22231.23422140 -.00000036  00000-0  48255-5 0  9992,2 49153  69.9984 288.0264 0003237 261.5274  98.5517 14.96720901 52462,6955.1730000000025,96.21,579.29,574.7869999999998,0.0
49153.0,STARLINK-3072,PAYLOAD,2022-08-19 12:02:13,14.96721631,0.0003242,69.9985,287.3542,261.7932,98.2858,1.23e-05,4.9e-07,0.0,0 STARLINK-3072,1 49153U 21082Z   22231.50154760  .00000049  00000-0  12300-4 0  9996,2 49153  69.9985 287.3542 0003242 261.7932  98.2858 14.96721631 53729,6955.170999999999,96.21,579.2909999999998,574.781,0.0
49153.0,STARLINK-3072,PAYLOAD,2022-08-20 05:40:51,14.9672557,0.0003283999999999,69.9984,285.5055,262.4586,97.6199,-0.0002753999999999,-3.243e-05,0.0,0 STARLINK-3072,1 49153U 21082Z   22232.23670188 -.00003243  00000-0 -27540-3 0  9996,2 49153  69.9984 285.5055 0003284 262.4586  97.6199 14.96725570 52610,6955.159000000002,96.21,579.308,574.74,0.0
49153.0,STARLINK-3072,PAYLOAD,2022-08-20 10:29:34,14.96707428,0.0003171999999999,69.9986,285.0011,261.5063,98.5736,-1.2067e-05,-2.3e-06,0.0,0 STARLINK-3072,1 49153U 21082Z   22232.43720382 -.00000230  00000-0 -12067-4 0  9992,2 49153  69.9986 285.0011 0003172 261.5063  98.5736 14.96707428 53862,6955.215,96.211,579.286,574.874,0.0
49153.0,STARLINK-3072,PAYLOAD,2022-08-20 13:42:03,14.96707481,0.0003187,69.9985,284.6651,261.5051,98.5746,-1.2846e-05,-2.39e-06,0.0,0 STARLINK-3072,1 49153U 21082Z   22232.57086820 -.00000239  00000-0 -12846-4 0  9993,2 49153  69.9985 284.6651 0003187 261.5051  98.5746 14.96707481 52666,6955.215,96.211,579.297,574.863,0.0
49153.0,STARLINK-3072,PAYLOAD,2022-08-21 05:44:27,14.96689107,0.0002892,69.9984,282.9842,259.0433,101.04,-0.0003117,-3.655e-05,0.0,0 STARLINK-3072,1 49153U 21082Z   22233.23920747 -.00003655  00000-0 -31170-3 0  9997,2 49153  69.9984 282.9842 0002892 259.0433 101.0400 14.96689107 52768,6955.272,96.212,579.148,575.125,0.0
49153.0,STARLINK-3072,PAYLOAD,2022-08-21 12:09:22,14.96717727,0.000319,69.9991,282.3131,253.6665,106.4143,-0.00017957,-2.146e-05,0.0,0 STARLINK-3072,1 49153U 21082Z   22233.50651380 -.00002146  00000-0 -17957-3 0  9992,2 49153  69.9991 282.3131 0003190 253.6665 106.4143 14.96717727 52808,6955.183000000001,96.211,579.2669999999998,574.8290000000002,0.0
49153.0,STARLINK-3072,PAYLOAD,2022-08-21 13:45:37,14.96716559,0.0003071,69.9991,282.1449,262.0635,98.0175,-0.0001733,-2.075e-05,0.0,0 STARLINK-3072,1 49153U 21082Z   22233.57334726 -.00002075  00000-0 -17330-3 0  9997,2 49153  69.9991 282.1449 0003071 262.0635  98.0175 14.96716559 54037,6955.187,96.211,579.188,574.9159999999998,0.0
49153.0,STARLINK-3072,PAYLOAD,2022-08-22 09:00:28,14.96710285,0.0002995,69.9983,280.1269,259.0779,101.0042,8.979700000000001e-05,9.36e-06,0.0,0 STARLINK-3072,1 49153U 21082Z   22234.37533180  .00000936  00000-0  89797-4 0  9990,2 49153  69.9983 280.1269 0002995 259.0779 101.0042 14.96710285 54156,6955.206,96.211,579.154,574.988,0.0
49153.0,STARLINK-3072,PAYLOAD,2022-08-22 20:14:08,14.96718239,0.0002785,69.9988,278.9502,261.4233,98.6609,-4.9122e-05,-6.54e-06,0.0,0 STARLINK-3072,1 49153U 21082Z   22234.84315480 -.00000654  00000-0 -49122-4 0  9990,2 49153  69.9988 278.9502 0002785 261.4233  98.6609 14.96718239 54220,6955.182,96.21,578.984,575.11,0.0
49153.0,STARLINK-3072,PAYLOAD,2022-08-23 04:15:20,14.9666769,0.0002698,69.998,278.10900000000004,257.2913,102.7943,0.00087274,9.899e-05,0.0,0 STARLINK-3072,1 49153U 21082Z   22235.17731864  .00009899  00000-0  87274-3 0  9992,2 49153  69.9980 278.1090 0002698 257.2913 102.7943 14.96667690 53059,6955.3380000000025,96.214,579.08,575.327,0.0
49153.0,STARLINK-3072,PAYLOAD,2022-08-23 12:16:32,14.96673171,0.0002718,69.9979,277.2685,257.2622,102.8233,0.00080037,9.071e-05,0.0,0 STARLINK-3072,1 49153U 21082Z   22235.51148443  .00009071  00000-0  80037-3 0  9997,2 49153  69.9979 277.2685 0002718 257.2622 102.8233 14.96673171 54322,6955.321,96.213,579.077,575.2959999999998,0.0
49153.0,STARLINK-3072,PAYLOAD,2022-08-24 04:18:53,14.96719562,0.0003173,69.9978,275.5874,261.0579,99.022,5.8525e-05,5.78e-06,0.0,0 STARLINK-3072,1 49153U 21082Z   22236.17979094  .00000578  00000-0  58525-4 0  9995,2 49153  69.9978 275.5874 0003173 261.0579  99.0220 14.96719562 53206,6955.178000000001,96.21,579.249,574.836,0.0
49153.0,STARLINK-3072,PAYLOAD,2022-08-24 10:43:51,14.96719583,0.0003177999999999,69.9978,274.915,261.0058,99.0741,5.4375e-05,5.31e-06,0.0,0 STARLINK-3072,1 49153U 21082Z   22236.44711821  .00000531  00000-0  54375-4 0  9995,2 49153  69.9978 274.9150 0003178 261.0058  99.0741 14.96719583 54463,6955.177,96.21,579.253,574.832,0.0
49153.0,STARLINK-3072,PAYLOAD,2022-08-25 10:47:24,14.96723447,0.000322,69.9977,272.3939,262.1863,97.893,4.7832e-05,4.56e-06,0.0,0 STARLINK-3072,1 49153U 21082Z   22237.44959150  .00000456  00000-0  47832-4 0  9991,2 49153  69.9977 272.3939 0003220 262.1863  97.8930 14.96723447 54610,6955.165,96.21,579.27,574.7909999999998,0.0
49153.0,STARLINK-3072,PAYLOAD,2022-08-25 20:24:51,14.96709879,0.0002721,69.9984,271.3874,263.1107,96.9741,-9.3874e-05,-1.166e-05,0.0,0 STARLINK-3072,1 49153U 21082Z   22237.85059677 -.00001166  00000-0 -93874-4 0  9999,2 49153  69.9984 271.3874 0002721 263.1107  96.9741 14.96709879 54671,6955.208000000001,96.211,578.965,575.18,0.0
49153.0,STARLINK-3072,PAYLOAD,2022-08-26 02:49:48,14.9670917,0.0003123999999999,69.9977,270.7129,261.4044,98.6761,-0.00012406,-1.511e-05,0.0,0 STARLINK-3072,1 49153U 21082Z   22238.11792580 -.00001511  00000-0 -12406-3 0  9991,2 49153  69.9977 270.7129 0003124 261.4044  98.6761 14.96709170 53492,6955.21,96.211,579.248,574.9019999999998,0.0
49153.0,STARLINK-3072,PAYLOAD,2022-08-26 10:51:00,14.96708009,0.0003076,69.9982,269.8729,262.3265,97.7544,-0.00013574,-1.645e-05,0.0,0 STARLINK-3072,1 49153U 21082Z   22238.45208786 -.00001645  00000-0 -13574-3 0  9993,2 49153  69.9982 269.8729 0003076 262.3265  97.7544 14.96708009 54764,6955.2130000000025,96.211,579.2180000000002,574.939,0.0
49153.0,STARLINK-3072,PAYLOAD,2022-08-26 18:52:11,14.96715756,0.0003025,69.9982,269.0325,259.4329,100.6488,-0.00026385,-3.11e-05,0.0,0 STARLINK-3072,1 49153U 21082Z   22238.78624720 -.00003110  00000-0 -26385-3 0  9992,2 49153  69.9982 269.0325 0003025 259.4329 100.6488 14.96715756 54814,6955.189,96.211,579.158,574.95,0.0
49153.0,STARLINK-3072,PAYLOAD,2022-08-27 10:54:34,14.96708674,0.0003122,69.9978,267.3511,261.7492,98.3312,-8.9567e-05,-1.116e-05,0.0,0 STARLINK-3072,1 49153U 21082Z   22239.45457082 -.00001116  00000-0 -89567-4 0  9998,2 49153  69.9978 267.3511 0003122 261.7492  98.3312 14.96708674 54913,6955.2109999999975,96.211,579.248,574.905,0.0
49153.0,STARLINK-3072,PAYLOAD,2022-08-28 04:33:12,14.96703045,0.0003091,69.9977,265.5021,262.2193,97.8614,5.5517e-05,5.44e-06,0.0,0 STARLINK-3072,1 49153U 21082Z   22240.18972840  .00000544  00000-0  55517-4 0  9994,2 49153  69.9977 265.5021 0003091 262.2193  97.8614 14.96703045 53800,6955.229,96.211,579.244,574.944,0.0
49153.0,STARLINK-3072,PAYLOAD,2022-08-28 10:58:09,14.96703141,0.0003083,69.9977,264.8297,262.3375,97.7433,5.3446e-05,5.2e-06,0.0,0 STARLINK-3072,1 49153U 21082Z   22240.45705867  .00000520  00000-0  53446-4 0  9990,2 49153  69.9977 264.8297 0003083 262.3375  97.7433 14.96703141 55066,6955.228,96.211,579.238,574.9490000000002,0.0
49153.0,STARLINK-3072,PAYLOAD,2022-08-29 06:13:01,14.96705185,0.0003105,69.9977,262.8128,262.3278,97.7527,4.7735e-05,4.55e-06,0.0,0 STARLINK-3072,1 49153U 21082Z   22241.25904703  .00000455  00000-0  47735-4 0  9990,2 49153  69.9977 262.8128 0003105 262.3278  97.7527 14.96705185 53965,6955.222,96.211,579.247,574.927,0.0
49153.0,STARLINK-3072,PAYLOAD,2022-08-29 11:01:44,14.96705748,0.0003086,69.9978,262.3087,262.2125,97.8683,5.6262e-05,5.52e-06,0.0,0 STARLINK-3072,1 49153U 21082Z   22241.45954386  .00000552  00000-0  56262-4 0  9997,2 49153  69.9978 262.3087 0003086 262.2125  97.8683 14.96705748 55212,6955.22,96.211,579.232,574.939,0.0
49153.0,STARLINK-3072,PAYLOAD,2022-08-30 11:05:19,14.96708464,0.0003098,69.9977,259.7873,262.307,97.7737,4.3823e-05,4.1e-06,0.0,0 STARLINK-3072,1 49153U 21082Z   22242.46202750  .00000410  00000-0  43823-4 0  9992,2 49153  69.9977 259.7873 0003098 262.3070  97.7737 14.96708464 54145,6955.212,96.211,579.232,574.922,0.0
49153.0,STARLINK-3072,PAYLOAD,2022-08-31 11:08:53,14.96710773,0.0003078,69.9977,257.2654,262.4447,97.6361,4.4916e-05,4.22e-06,0.0,0 STARLINK-3072,1 49153U 21082Z   22243.46450945  .00000422  00000-0  44916-4 0  9991,2 49153  69.9977 257.2654 0003078 262.4447  97.6361 14.96710773 54296,6955.205,96.211,579.211,574.929,0.0
